QIANFAN-41              
1 62242U 24232F   26014.12822098  .00000050  00000+0  59193-4 0  9999
2 62242  89.0000  37.9257 0015950  97.3598 262.9367 13.50982643103627
QIANFAN-42              
1 62243U 24232G   26014.15565158  .00000113  00000+0  42410-4 0  9998
2 62243  88.9994  33.6502 0014260 347.3371  12.7461 14.24506229105985
QIANFAN-43              
1 62244U 24232H   26014.12408942  .00000053  00000+0  63588-4 0  9995
2 62244  89.0004  37.9929 0017456 102.0990 258.2119 13.50981628 72239
QIANFAN-44              
1 62245U 24232J   26014.11174179  .00000042  00000+0  46103-4 0  9999
2 62245  89.0003  37.8043 0015680  99.3900 260.9025 13.50983877103702
QIANFAN-45              
1 62246U 24232K   26014.15295167  .00000051  00000+0  59533-4 0  9996
2 62246  89.0006  37.9479 0016349  99.0013 261.2990 13.50979880103631
QIANFAN-46              
1 62247U 24232L   26014.10352467  .00000052  00000+0  61119-4 0  9993
2 62247  89.0002  38.0206 0016367 104.0041 256.2931 13.50981854103583
QIANFAN-47              
1 62248U 24232M   26014.10767718  .00000039  00000+0  42077-4 0  9990
2 62248  88.9998  37.9518 0016806 103.2777 257.0250 13.50981969103619
QIANFAN-48              
1 62249U 24232N   26014.14465901  .00000033  00000+0  32884-4 0  9993
2 62249  89.0002  37.9511 0019042 105.6693 254.6561 13.50983434103627
